[
    {
        "Altitude(m)": 622205.8692959661,
        "Argument of Periapsis(deg)": 0.0,
        "Eccentricity": 0.0,
        "Inclination(deg)": 60.0,
        "Latitude(deg)": -52.1624403975456,
        "Longitude(deg)": 2.7005455820987145,
        "Mean Anomaly(deg)": -114.5455,
        "RAAN(deg)": 235.0,
        "Satellite Name": "Test1 1049",
        "Satellite Number": 1049,
        "Semi-Major Axis(m)": 6980739.136638005,
        "Time(s)": 0
    },
    {
        "Altitude(m)": 622344.7752505959,
        "Argument of Periapsis(deg)": 0.00010418945913296404,
        "Eccentricity": 0.0,
        "Inclination(deg)": 60.0,
        "Latitude(deg)": -52.5200183833633,
        "Longitude(deg)": 3.481759984319624,
        "Mean Anomaly(deg)": -113.92539385453817,
        "RAAN(deg)": 234.99957995086027,
        "Satellite Name": "Test1 1049",
        "Satellite Number": 1049,
        "Semi-Major Axis(m)": 6980739.136638005,
        "Time(s)": 10
    }
]